[
    {
        "Altitude(m)": 604234.6256965211,
        "Argument of Periapsis(deg)": 0.0,
        "Eccentricity": 0.0,
        "Inclination(deg)": 60.0,
        "Latitude(deg)": 14.117329668590937,
        "Longitude(deg)": 86.727324995711,
        "Mean Anomaly(deg)": 163.6364,
        "RAAN(deg)": 15.0,
        "Satellite Name": "Test1 76",
        "Satellite Number": 76,
        "Semi-Major Axis(m)": 6980739.136638005,
        "Time(s)": 0
    },
    {
        "Altitude(m)": 604223.4536976079,
        "Argument of Periapsis(deg)": 0.00010418945913296404,
        "Eccentricity": 0.0,
        "Inclination(deg)": 60.0,
        "Latitude(deg)": 13.582466088132074,
        "Longitude(deg)": 87.01423437616147,
        "Mean Anomaly(deg)": 164.25650614546183,
        "RAAN(deg)": 14.999579950860259,
        "Satellite Name": "Test1 76",
        "Satellite Number": 76,
        "Semi-Major Axis(m)": 6980739.136638005,
        "Time(s)": 10
    }
]